[
    {
        "Altitude(m)": 617710.695339512,
        "Argument of Periapsis(deg)": 0.0,
        "Eccentricity": 0.0,
        "Inclination(deg)": 60.0,
        "Latitude(deg)": -41.1028108749181,
        "Longitude(deg)": -125.03340040993207,
        "Mean Anomaly(deg)": 310.9091000000001,
        "RAAN(deg)": 5.0,
        "Satellite Name": "Test1 41",
        "Satellite Number": 41,
        "Semi-Major Axis(m)": 6980739.136638005,
        "Time(s)": 0
    },
    {
        "Altitude(m)": 617517.9938099884,
        "Argument of Periapsis(deg)": 0.00010418945913296404,
        "Eccentricity": 0.0,
        "Inclination(deg)": 60.0,
        "Latitude(deg)": -40.63701814312017,
        "Longitude(deg)": -124.53660519204256,
        "Mean Anomaly(deg)": 311.5292061454619,
        "RAAN(deg)": 4.999579950860257,
        "Satellite Name": "Test1 41",
        "Satellite Number": 41,
        "Semi-Major Axis(m)": 6980739.136638005,
        "Time(s)": 10
    }
]